ONEWEB-0620             
1 55161U 23004X   24203.92202775 -.00000346  00000+0 -10117-2 0  9998
2 55161  87.8986 159.4909 0001893  95.5197 264.6147 13.11419615 74700
ONEWEB-0621             
1 55162U 23004Y   24203.87288140  .00000498  00000+0  13705-2 0  9995
2 55162  87.8980 159.4687 0002362  81.8785 278.2611 13.11415914 74672
ONEWEB-0622             
1 55163U 23004Z   24203.87796666  .00000404  00000+0  11044-2 0  9994
2 55163  87.8981 159.4843 0002347 104.5584 255.5805 13.11415059 74663
ONEWEB-0624             
1 55165U 23004AB  24203.83559627 -.00000145  00000+0 -43799-3 0  9993
2 55165  87.8960 129.1246 0002155  82.3249 277.8125 13.12445393 76840
ONEWEB-0625             
1 55166U 23004AC  24203.88745112  .00000049  00000+0  92102-4 0  9999
2 55166  87.9191 144.3349 0002257  73.8070 286.3310 13.17650655 76015
ONEWEB-0626             
1 55167U 23004AD  24203.87775256  .00000032  00000+0  49956-4 0  9992
2 55167  87.9190 144.3372 0001581  86.6910 273.4402 13.17650547 76014
ONEWEB-0627             
1 55168U 23004AE  24203.86644683  .00000025  00000+0  32188-4 0  9992
2 55168  87.9191 144.3408 0002284  97.5440 262.5951 13.17649434 76017
